NORAD_CAT_ID,OBJECT_NAME,OBJECT_TYPE,EPOCH,MEAN_MOTION,ECCENTRICITY,INCLINATION,RA_OF_ASC_NODE,ARG_OF_PERICENTER,MEAN_ANOMALY,BSTAR,MEAN_MOTION_DOT,MEAN_MOTION_DDOT,TLE_LINE0,TLE_LINE1,TLE_LINE2,SEMIMAJOR_AXIS,PERIOD,APOGEE,PERIGEE,DECAYED
52564.0,STARLINK-3959,PAYLOAD,2022-07-05 22:00:00,15.08829996,0.0002087,53.2191,42.0654,51.5032,178.7232,0.00044506,6.8e-05,0.0,0 STARLINK-3959,1 52564U 22051AH  22186.91667824  .00006800  00000-0  44506-3 0  9990,2 52564  53.2191  42.0654 0002087  51.5032 178.7232 15.08829996  1300,6917.911,95.438,541.22,538.332,0.0
52564.0,STARLINK-3959,PAYLOAD,2022-07-06 06:00:00,15.08857348,0.0002002,53.2192,40.5683,52.2471,189.5608,-0.0020944,-0.00033483,0.0,0 STARLINK-3959,1 52564U 22051AH  22187.25001157 -.00033483  00000-0 -20944-2 0  9997,2 52564  53.2192  40.5683 0002002  52.2471 189.5608 15.08857348  8786,6917.8269999999975,95.436,541.077,538.307,0.0
52564.0,STARLINK-3959,PAYLOAD,2022-07-06 14:00:01,15.08841982,0.0001946,53.2196,39.071,58.2126,195.1975,0.001499,0.00023651,0.0,0 STARLINK-3959,1 52564U 22051AH  22187.58334491  .00023651  00000-0  14990-2 0  9991,2 52564  53.2196  39.0710 0001946  58.2126 195.1975 15.08841982  1301,6917.874,95.437,541.086,538.393,0.0
52564.0,STARLINK-3959,PAYLOAD,2022-07-06 20:49:49,15.08834776,0.0001939,53.2202,37.7944,55.1313,304.9861,0.00019204,2.769e-05,0.0,0 STARLINK-3959,1 52564U 22051AH  22187.86793199  .00002769  00000-0  19204-3 0  9997,2 52564  53.2202  37.7944 0001939  55.1313 304.9861 15.08834776  8875,6917.896,95.438,541.1030000000002,538.42,0.0
52564.0,STARLINK-3959,PAYLOAD,2022-07-07 14:00:01,15.08834573,0.0001845,53.22,34.5822,58.1484,230.0946,0.0012118,0.00019048,0.0,0 STARLINK-3959,1 52564U 22051AH  22188.58334491  .00019048  00000-0  12118-2 0  9997,2 52564  53.2200  34.5822 0001845  58.1484 230.0946 15.08834573  1300,6917.897,95.438,541.038,538.486,0.0
52564.0,STARLINK-3959,PAYLOAD,2022-07-07 22:00:00,15.08832228,0.0002014,53.22,33.0878,52.23,247.6125,0.0010494,0.00016449,0.0,0 STARLINK-3959,1 52564U 22051AH  22188.91667824  .00016449  00000-0  10494-2 0  9990,2 52564  53.2200  33.0878 0002014  52.2300 247.6125 15.08832228  9032,6917.904,95.438,541.1619999999998,538.376,0.0
52564.0,STARLINK-3959,PAYLOAD,2022-07-08 14:00:01,15.08886543,0.0001746,53.22,30.0936,58.0413,265.0239,-0.0015583,-0.00025035,0.0,0 STARLINK-3959,1 52564U 22051AH  22189.58334491 -.00025035  00000-0 -15583-2 0  9992,2 52564  53.2200  30.0936 0001746  58.0413 265.0239 15.08886543  9134,6917.738,95.435,540.811,538.395,0.0
52564.0,STARLINK-3959,PAYLOAD,2022-07-08 22:00:01,15.08847515,0.0001848,53.2197,28.599,50.455,284.3131,0.0015387,0.0002429,0.0,0 STARLINK-3959,1 52564U 22051AH  22189.91668981  .00024290  00000-0  15387-2 0  9995,2 52564  53.2197  28.5990 0001848  50.4550 284.3131 15.08847515  1304,6917.857,95.437,541.001,538.444,0.0
52564.0,STARLINK-3959,PAYLOAD,2022-07-09 14:00:01,15.08819552,0.0001587,53.2195,25.605,55.8517,302.0425,-0.0027705,-0.00044086,0.0,0 STARLINK-3959,1 52564U 22051AH  22190.58334491 -.00044086  00000-0 -27705-2 0  9990,2 52564  53.2195  25.6050 0001587  55.8517 302.0425 15.08819552  1303,6917.943,95.439,540.906,538.71,0.0
52564.0,STARLINK-3959,PAYLOAD,2022-07-09 16:00:00,15.08817561,0.0001629,53.2194,25.2314,53.9921,36.7919,-0.0035404,-0.0005616,0.0,0 STARLINK-3959,1 52564U 22051AH  22190.66667824 -.00056160  00000-0 -35404-2 0  9999,2 52564  53.2194  25.2314 0001629  53.9921  36.7919 15.08817561  9299,6917.949000000001,95.439,540.941,538.687,0.0
52564.0,STARLINK-3959,PAYLOAD,2022-07-09 20:00:01,15.08780193,0.0001764999999999,53.2191,24.4843,51.1601,225.4039,-9.6417e-05,-1.82e-05,0.0,0 STARLINK-3959,1 52564U 22051AH  22190.83334491 -.00001820  00000-0 -96417-4 0  9995,2 52564  53.2191  24.4843 0001765  51.1601 225.4039 15.08780193  1304,6918.063,95.441,541.149,538.707,0.0
52564.0,STARLINK-3959,PAYLOAD,2022-07-10 06:00:00,15.0878868,0.0001626999999999,53.2188,22.6129,52.2554,328.7125,0.0017093,0.00026982,0.0,0 STARLINK-3959,1 52564U 22051AH  22191.25001157  .00026982  00000-0  17093-2 0  9997,2 52564  53.2188  22.6129 0001627  52.2554 328.7125 15.08788680  9381,6918.0369999999975,95.441,541.028,538.7769999999998,0.0
52564.0,STARLINK-3959,PAYLOAD,2022-07-10 14:00:01,15.08830311,0.0001565999999999,53.2189,21.1166,55.2125,337.297,-2.037e-05,-6.12e-06,0.0,0 STARLINK-3959,1 52564U 22051AH  22191.58334491 -.00000612  00000-0 -20370-4 0  9991,2 52564  53.2189  21.1166 0001566  55.2125 337.2970 15.08830311  1302,6917.91,95.438,540.8580000000002,538.692,0.0
52564.0,STARLINK-3959,PAYLOAD,2022-07-10 22:00:00,15.08808902,0.0001733,53.2187,19.6219,48.6068,355.4889,0.0022536,0.0003573,0.0,0 STARLINK-3959,1 52564U 22051AH  22191.91667824  .00035730  00000-0  22536-2 0  9998,2 52564  53.2187  19.6219 0001733  48.6068 355.4889 15.08808902  1301,6917.975,95.44,541.039,538.6419999999998,0.0
52564.0,STARLINK-3959,PAYLOAD,2022-07-11 14:00:01,15.08854583,0.0001638,53.2186,16.6275,54.7849,12.4764,-0.0002768999999999,-4.694e-05,0.0,0 STARLINK-3959,1 52564U 22051AH  22192.58334491 -.00004694  00000-0 -27690-3 0  9997,2 52564  53.2186  16.6275 0001638  54.7849  12.4764 15.08854583  1306,6917.8359999999975,95.437,540.8340000000002,538.568,0.0
52564.0,STARLINK-3959,PAYLOAD,2022-07-11 22:00:00,15.08829915,0.0001786999999999,53.2186,15.1327,47.9426,30.934,0.0028821,0.00045867,0.0,0 STARLINK-3959,1 52564U 22051AH  22192.91667824  .00045867  00000-0  28821-2 0  9994,2 52564  53.2186  15.1327 0001787  47.9426  30.9340 15.08829915  1304,6917.911,95.438,541.012,538.54,0.0
52564.0,STARLINK-3959,PAYLOAD,2022-07-12 14:00:01,15.0886334,0.0001626999999999,53.2188,12.1381,51.6882,50.4212,-0.00054955,-9.029e-05,0.0,0 STARLINK-3959,1 52564U 22051AH  22193.58334491 -.00009029  00000-0 -54955-3 0  9999,2 52564  53.2188  12.1381 0001627  51.6882  50.4212 15.08863340  9734,6917.809,95.436,540.8,538.549,0.0
52564.0,STARLINK-3959,PAYLOAD,2022-07-12 22:00:00,15.08845291,0.00018,53.2188,10.6432,44.6225,69.1114,0.0021888,0.00034724,0.0,0 STARLINK-3959,1 52564U 22051AH  22193.91667824  .00034724  00000-0  21888-2 0  9991,2 52564  53.2188  10.6432 0001800  44.6225  69.1114 15.08845291  1308,6917.864000000001,95.437,540.974,538.484,0.0
52564.0,STARLINK-3959,PAYLOAD,2022-07-13 14:00:01,15.08843571,0.0001671,53.2194,7.6487,50.7901,86.1676,-0.00070114,-0.0001143,0.0,0 STARLINK-3959,1 52564U 22051AH  22194.58334491 -.00011430  00000-0 -70114-3 0  9994,2 52564  53.2194   7.6487 0001671  50.7901  86.1676 15.08843571  1307,6917.869000000002,95.437,540.89,538.578,0.0
52564.0,STARLINK-3959,PAYLOAD,2022-07-13 22:00:00,15.08816769,0.0001776999999999,53.2194,6.1538,42.8277,105.7237,0.00068912,0.00010689,0.0,0 STARLINK-3959,1 52564U 22051AH  22194.91667824  .00010689  00000-0  68912-3 0  9996,2 52564  53.2194   6.1538 0001777  42.8277 105.7237 15.08816769  9930,6917.951,95.439,541.0459999999998,538.587,0.0
52564.0,STARLINK-3959,PAYLOAD,2022-07-14 14:00:01,15.08837217,0.0001609,53.2199,3.1598,48.0661,123.6186,-0.00098472,-0.00015924,0.0,0 STARLINK-3959,1 52564U 22051AH  22195.58334491 -.00015924  00000-0 -98472-3 0  9994,2 52564  53.2199   3.1598 0001609  48.0661 123.6186 15.08837217  1303,6917.889,95.438,540.867,538.641,0.0
52564.0,STARLINK-3959,PAYLOAD,2022-07-14 22:00:00,15.08808939,0.0001754999999999,53.2198,1.6648,41.4685,141.8096,0.0035306999999999,0.00056304,0.0,0 STARLINK-3959,1 52564U 22051AH  22195.91667824  .00056304  00000-0  35307-2 0  9992,2 52564  53.2198   1.6648 0001755  41.4685 141.8096 15.08808939  1307,6917.975,95.44,541.054,538.626,0.0
52564.0,STARLINK-3959,PAYLOAD,2022-07-15 06:00:00,15.08828416,0.0001548,53.22,0.1668,46.1029,148.7633,0.0018016,0.00028492,0.0,0 STARLINK-3959,1 52564U 22051AH  22196.25001157  .00028492  00000-0  18016-2 0  9996,2 52564  53.2200   0.1668 0001548  46.1029 148.7633 15.08828416 10148,6917.916,95.438,540.852,538.71,0.0
52564.0,STARLINK-3959,PAYLOAD,2022-07-15 14:00:01,15.08876504,0.0001568,53.2201,358.6712,46.8614,159.5928,-0.0031781,-0.00050563,0.0,0 STARLINK-3959,1 52564U 22051AH  22196.58334491 -.00050563  00000-0 -31781-2 0  9992,2 52564  53.2201 358.6712 0001568  46.8614 159.5928 15.08876504  1305,6917.769,95.435,540.719,538.549,0.0
52564.0,STARLINK-3959,PAYLOAD,2022-07-15 22:00:00,15.08816595,0.0001672,53.2198,357.1759,38.8726,179.2138,0.0032592,0.00051931,0.0,0 STARLINK-3959,1 52564U 22051AH  22196.91667824  .00051931  00000-0  32592-2 0  9997,2 52564  53.2198 357.1759 0001672  38.8726 179.2138 15.08816595 10245,6917.9519999999975,95.439,540.974,538.66,0.0
52564.0,STARLINK-3959,PAYLOAD,2022-07-16 14:00:01,15.08858582,0.0001589,53.22,354.1825,46.6905,194.5887,-0.0023693,-0.00037817,0.0,0 STARLINK-3959,1 52564U 22051AH  22197.58334491 -.00037817  00000-0 -23693-2 0  9993,2 52564  53.2200 354.1825 0001589  46.6905 194.5887 15.08858582 10347,6917.824000000001,95.436,540.788,538.589,0.0
52564.0,STARLINK-3959,PAYLOAD,2022-07-16 22:00:00,15.08837622,0.0001759,53.2195,352.6873,42.8527,210.0325,0.00099853,0.00015638,0.0,0 STARLINK-3959,1 52564U 22051AH  22197.91667824  .00015638  00000-0  99853-3 0  9996,2 52564  53.2195 352.6873 0001759  42.8527 210.0325 15.08837622  1302,6917.888000000001,95.438,540.97,538.536,0.0
52564.0,STARLINK-3959,PAYLOAD,2022-07-17 06:00:00,15.08808538,0.0001641,53.2195,351.1893,49.5447,214.9523,0.0027033,0.0004296,0.0,0 STARLINK-3959,1 52564U 22051AH  22198.25001157  .00042960  00000-0  27033-2 0  9993,2 52564  53.2195 351.1893 0001641  49.5447 214.9523 15.08808538 10445,6917.977,95.44,540.977,538.706,0.0
52564.0,STARLINK-3959,PAYLOAD,2022-07-17 14:00:01,15.08855003,0.0001694,53.2195,349.6941,49.6784,226.3811,-0.0022851,-0.00036487,0.0,0 STARLINK-3959,1 52564U 22051AH  22198.58334491 -.00036487  00000-0 -22851-2 0  9991,2 52564  53.2195 349.6941 0001694  49.6784 226.3811 15.08855003  1305,6917.835,95.437,540.871,538.528,0.0
